start=new Date('2022-02-08T00:00:00.000Z').valueOf();
sats=[{"BSTAR":"0.00013997000000","COUNTRY_CODE":"US","OBJECT_ID":"2021-125AL","TLE_LINE1":"1 50190U 21125AL  22038.66667824  .00019080  00000-0  13997-3 0  9996","MEAN_ANOMALY":"177.4887","SEMIMAJOR_AXIS":"6727.862","REV_AT_EPOCH":"1088","LAUNCH_DATE":"2021-12-18","CLASSIFICATION_TYPE":"U","CENTER_NAME":"EARTH","RA_OF_ASC_NODE":"112.4756","RCS_SIZE":"LARGE","EPHEMERIS_TYPE":"0","PERIAPSIS":"347.596","REF_FRAME":"TEME","TIME_SYSTEM":"UTC","MEAN_MOTION_DOT":"0.00019080","FILE":"3294319","EPOCH":"2022-02-07T16:00:00.999936","NORAD_CAT_ID":"50190","ECCENTRICITY":"0.00031680","ELEMENT_SET_NO":"999","GP_ID":"195457969","INCLINATION":"53.2170","DECAY_DATE":null,"MEAN_MOTION_DDOT":"0.0000000000000","OBJECT_TYPE":"PAYLOAD","PERIOD":"91.533","MEAN_MOTION":"15.73211659","ARG_OF_PERICENTER":"19.2523","SITE":"AFWTR","TLE_LINE2":"2 50190  53.2170 112.4756 0003168  19.2523 177.4887 15.73211659 10880","APOAPSIS":"351.858","OBJECT_NAME":"STARLINK-3268","MEAN_ELEMENT_THEORY":"SGP4"},{"ARG_OF_PERICENTER":"35.9592","MEAN_MOTION":"15.40567419","PERIOD":"93.472","MEAN_ELEMENT_THEORY":"SGP4","OBJECT_NAME":"STARLINK-3273","APOAPSIS":"445.744","TLE_LINE2":"2 50191  53.2173 115.5555 0001918  35.9592 111.9862 15.40567419  3674","SITE":"AFWTR","ELEMENT_SET_NO":"999","GP_ID":"195481781","ECCENTRICITY":"0.00019180","NORAD_CAT_ID":"50191","EPOCH":"2022-02-07T14:00:01.000224","FILE":"3294379","MEAN_MOTION_DOT":"-0.00660430","OBJECT_TYPE":"PAYLOAD","MEAN_MOTION_DDOT":"0.0000000000000","DECAY_DATE":null,"INCLINATION":"53.2173","RA_OF_ASC_NODE":"115.5555","TIME_SYSTEM":"UTC","REF_FRAME":"TEME","PERIAPSIS":"443.127","EPHEMERIS_TYPE":"0","RCS_SIZE":"LARGE","MEAN_ANOMALY":"111.9862","TLE_LINE1":"1 50191U 21125AM  22038.58334491 -.00660430  00000-0 -17197-1 0  9996","COUNTRY_CODE":"US","OBJECT_ID":"2021-125AM","BSTAR":"-0.01719700000000","CLASSIFICATION_TYPE":"U","LAUNCH_DATE":"2021-12-18","CENTER_NAME":"EARTH","REV_AT_EPOCH":"367","SEMIMAJOR_AXIS":"6822.571"},{"GP_ID":"195457704","ELEMENT_SET_NO":"999","ECCENTRICITY":"0.00031350","NORAD_CAT_ID":"50192","EPOCH":"2022-02-07T16:00:00.999936","FILE":"3294319","MEAN_MOTION_DOT":"-0.00021184","OBJECT_TYPE":"PAYLOAD","DECAY_DATE":null,"MEAN_MOTION_DDOT":"0.0000000000000","INCLINATION":"53.2168","ARG_OF_PERICENTER":"19.2524","MEAN_MOTION":"15.73260231","PERIOD":"91.530","MEAN_ELEMENT_THEORY":"SGP4","OBJECT_NAME":"STARLINK-3259","APOAPSIS":"351.698","SITE":"AFWTR","TLE_LINE2":"2 50192  53.2168 112.4731 0003135  19.2524 178.3519 15.73260231  8279","MEAN_ANOMALY":"178.3519","TLE_LINE1":"1 50192U 21125AN  22038.66667824 -.00021184  00000-0 -14645-3 0  9999","OBJECT_ID":"2021-125AN","COUNTRY_CODE":"US","BSTAR":"-0.00014645000000","CLASSIFICATION_TYPE":"U","LAUNCH_DATE":"2021-12-18","CENTER_NAME":"EARTH","REV_AT_EPOCH":"827","SEMIMAJOR_AXIS":"6727.723","RA_OF_ASC_NODE":"112.4731","TIME_SYSTEM":"UTC","REF_FRAME":"TEME","PERIAPSIS":"347.479","EPHEMERIS_TYPE":"0","RCS_SIZE":"LARGE"},{"APOAPSIS":"351.581","TLE_LINE2":"2 50193  53.2167 112.4783 0002785  19.2415 175.6025 15.73218620 10882","SITE":"AFWTR","OBJECT_NAME":"STARLINK-3261","MEAN_ELEMENT_THEORY":"SGP4","MEAN_MOTION":"15.73218620","PERIOD":"91.532","ARG_OF_PERICENTER":"19.2415","INCLINATION":"53.2167","DECAY_DATE":null,"MEAN_MOTION_DDOT":"0.0000000000000","OBJECT_TYPE":"PAYLOAD","EPOCH":"2022-02-07T16:00:00.999936","FILE":"3294318","MEAN_MOTION_DOT":"0.00036323","NORAD_CAT_ID":"50193","GP_ID":"195457689","ELEMENT_SET_NO":"999","ECCENTRICITY":"0.00027850","RCS_SIZE":"LARGE","PERIAPSIS":"347.833","EPHEMERIS_TYPE":"0","REF_FRAME":"TEME","TIME_SYSTEM":"UTC","RA_OF_ASC_NODE":"112.4783","SEMIMAJOR_AXIS":"6727.842","CLASSIFICATION_TYPE":"U","LAUNCH_DATE":"2021-12-18","CENTER_NAME":"EARTH","REV_AT_EPOCH":"1088","TLE_LINE1":"1 50193U 21125AP  22038.66667824  .00036323  00000-0  26187-3 0  9993","OBJECT_ID":"2021-125AP","COUNTRY_CODE":"US","BSTAR":"0.00026187000000","MEAN_ANOMALY":"175.6025"},{"SEMIMAJOR_AXIS":"6727.925","REV_AT_EPOCH":"369","CENTER_NAME":"EARTH","LAUNCH_DATE":"2021-12-18","CLASSIFICATION_TYPE":"U","COUNTRY_CODE":"US","BSTAR":"0.00048726000000","OBJECT_ID":"2021-125AQ","TLE_LINE1":"1 50194U 21125AQ  22038.58334491  .00068299  00000-0  48726-3 0  9996","MEAN_ANOMALY":"66.0671","REF_FRAME":"TEME","TIME_SYSTEM":"UTC","RCS_SIZE":"LARGE","EPHEMERIS_TYPE":"0","PERIAPSIS":"347.921","RA_OF_ASC_NODE":"112.8813","OBJECT_TYPE":"PAYLOAD","INCLINATION":"53.2166","MEAN_MOTION_DDOT":"0.0000000000000","DECAY_DATE":null,"ECCENTRICITY":"0.00027780","ELEMENT_SET_NO":"999","GP_ID":"195483034","MEAN_MOTION_DOT":"0.00068299","EPOCH":"2022-02-07T14:00:01.000224","FILE":"3294379","NORAD_CAT_ID":"50194","MEAN_ELEMENT_THEORY":"SGP4","SITE":"AFWTR","TLE_LINE2":"2 50194  53.2166 112.8813 0002778  20.1831  66.0671 15.73189628  3691","APOAPSIS":"351.659","OBJECT_NAME":"STARLINK-3269","PERIOD":"91.534","MEAN_MOTION":"15.73189628","ARG_OF_PERICENTER":"20.1831"},{"MEAN_ANOMALY":"54.7328","TLE_LINE1":"1 50195U 21125AR  22038.58334491  .00068787  00000-0  49052-3 0  9992","COUNTRY_CODE":"US","BSTAR":"0.00049052000000","OBJECT_ID":"2021-125AR","LAUNCH_DATE":"2021-12-18","CLASSIFICATION_TYPE":"U","CENTER_NAME":"EARTH","REV_AT_EPOCH":"369","SEMIMAJOR_AXIS":"6727.904","RA_OF_ASC_NODE":"112.8940","PERIAPSIS":"347.793","EPHEMERIS_TYPE":"0","RCS_SIZE":"LARGE","TIME_SYSTEM":"UTC","REF_FRAME":"TEME","NORAD_CAT_ID":"50195","FILE":"3294379","EPOCH":"2022-02-07T14:00:01.000224","MEAN_MOTION_DOT":"0.00068787","GP_ID":"195482281","ELEMENT_SET_NO":"999","ECCENTRICITY":"0.00029360","MEAN_MOTION_DDOT":"0.0000000000000","DECAY_DATE":null,"INCLINATION":"53.2162","OBJECT_TYPE":"PAYLOAD","ARG_OF_PERICENTER":"28.7289","MEAN_MOTION":"15.73197063","PERIOD":"91.533","OBJECT_NAME":"STARLINK-3266","APOAPSIS":"351.744","TLE_LINE2":"2 50195  53.2162 112.8940 0002936  28.7289  54.7328 15.73197063  3691","SITE":"AFWTR","MEAN_ELEMENT_THEORY":"SGP4"},{"DECAY_DATE":null,"MEAN_MOTION_DDOT":"0.0000000000000","INCLINATION":"53.2168","OBJECT_TYPE":"PAYLOAD","NORAD_CAT_ID":"50196","FILE":"3294319","EPOCH":"2022-02-07T16:00:00.999936","MEAN_MOTION_DOT":"0.00090255","ELEMENT_SET_NO":"999","GP_ID":"195457974","ECCENTRICITY":"0.00031370","OBJECT_NAME":"STARLINK-3263","APOAPSIS":"351.851","SITE":"AFWTR","TLE_LINE2":"2 50196  53.2168 112.4669 0003137  19.0911 181.2814 15.73206836 10885","MEAN_ELEMENT_THEORY":"SGP4","ARG_OF_PERICENTER":"19.0911","MEAN_MOTION":"15.73206836","PERIOD":"91.533","CENTER_NAME":"EARTH","LAUNCH_DATE":"2021-12-18","CLASSIFICATION_TYPE":"U","REV_AT_EPOCH":"1088","SEMIMAJOR_AXIS":"6727.876","MEAN_ANOMALY":"181.2814","TLE_LINE1":"1 50196U 21125AS  22038.66667824  .00090255  00000-0  64031-3 0  9990","COUNTRY_CODE":"US","BSTAR":"0.00064031000000","OBJECT_ID":"2021-125AS","PERIAPSIS":"347.630","EPHEMERIS_TYPE":"0","RCS_SIZE":"LARGE","TIME_SYSTEM":"UTC","REF_FRAME":"TEME","RA_OF_ASC_NODE":"112.4669"},{"RA_OF_ASC_NODE":"112.4728","REF_FRAME":"TEME","TIME_SYSTEM":"UTC","RCS_SIZE":"MEDIUM","PERIAPSIS":"347.674","EPHEMERIS_TYPE":"0","TLE_LINE1":"1 50197U 21125AT  22038.66667824 -.00023215  00000-0 -16084-3 0  9990","BSTAR":"-0.00016084000000","COUNTRY_CODE":"US","OBJECT_ID":"2021-125AT","MEAN_ANOMALY":"181.9051","SEMIMAJOR_AXIS":"6727.669","LAUNCH_DATE":"2021-12-18","CENTER_NAME":"EARTH","CLASSIFICATION_TYPE":"U","REV_AT_EPOCH":"1088","MEAN_MOTION":"15.73279328","PERIOD":"91.529","ARG_OF_PERICENTER":"17.5262","MEAN_ELEMENT_THEORY":"SGP4","APOAPSIS":"351.394","SITE":"AFWTR","TLE_LINE2":"2 50197  53.2176 112.4728 0002765  17.5262 181.9051 15.73279328 10885","OBJECT_NAME":"STARLINK-3267","GP_ID":"195457967","ELEMENT_SET_NO":"999","ECCENTRICITY":"0.00027650","EPOCH":"2022-02-07T16:00:00.999936","FILE":"3294319","MEAN_MOTION_DOT":"-0.00023215","NORAD_CAT_ID":"50197","OBJECT_TYPE":"PAYLOAD","INCLINATION":"53.2176","MEAN_MOTION_DDOT":"0.0000000000000","DECAY_DATE":null},{"MEAN_ANOMALY":"183.9748","TLE_LINE1":"1 50198U 21125AU  22038.66667824 -.00033230  00000-0 -23297-3 0  9993","OBJECT_ID":"2021-125AU","COUNTRY_CODE":"US","BSTAR":"-0.00023297000000","CLASSIFICATION_TYPE":"U","LAUNCH_DATE":"2021-12-18","CENTER_NAME":"EARTH","REV_AT_EPOCH":"1088","SEMIMAJOR_AXIS":"6727.825","RA_OF_ASC_NODE":"112.4605","TIME_SYSTEM":"UTC","REF_FRAME":"TEME","PERIAPSIS":"347.855","EPHEMERIS_TYPE":"0","RCS_SIZE":"LARGE","ELEMENT_SET_NO":"999","GP_ID":"195457972","ECCENTRICITY":"0.00027280","NORAD_CAT_ID":"50198","FILE":"3294319","EPOCH":"2022-02-07T16:00:00.999936","MEAN_MOTION_DOT":"-0.00033230","OBJECT_TYPE":"PAYLOAD","MEAN_MOTION_DDOT":"0.0000000000000","DECAY_DATE":null,"INCLINATION":"53.2168","ARG_OF_PERICENTER":"19.3787","MEAN_MOTION":"15.73224458","PERIOD":"91.532","MEAN_ELEMENT_THEORY":"SGP4","OBJECT_NAME":"STARLINK-3264","APOAPSIS":"351.526","TLE_LINE2":"2 50198  53.2168 112.4605 0002728  19.3787 183.9748 15.73224458 10881","SITE":"AFWTR"},{"ELEMENT_SET_NO":"999","GP_ID":"195457965","ECCENTRICITY":"0.00034990","FILE":"3294319","EPOCH":"2022-02-07T16:00:00.999936","MEAN_MOTION_DOT":"0.00086795","NORAD_CAT_ID":"50199","OBJECT_TYPE":"PAYLOAD","INCLINATION":"53.2158","DECAY_DATE":null,"MEAN_MOTION_DDOT":"0.0000000000000","MEAN_MOTION":"15.73183644","PERIOD":"91.534","ARG_OF_PERICENTER":"22.1345","MEAN_ELEMENT_THEORY":"SGP4","APOAPSIS":"352.161","SITE":"AFWTR","TLE_LINE2":"2 50199  53.2158 112.4394 0003499  22.1345 190.3841 15.73183644 10881","OBJECT_NAME":"STARLINK-3270","TLE_LINE1":"1 50199U 21125AV  22038.66667824  .00086795  00000-0  61676-3 0  9999","BSTAR":"0.00061676000000","COUNTRY_CODE":"US","OBJECT_ID":"2021-125AV","MEAN_ANOMALY":"190.3841","SEMIMAJOR_AXIS":"6727.942","LAUNCH_DATE":"2021-12-18","CLASSIFICATION_TYPE":"U","CENTER_NAME":"EARTH","REV_AT_EPOCH":"1088","RA_OF_ASC_NODE":"112.4394","REF_FRAME":"TEME","TIME_SYSTEM":"UTC","RCS_SIZE":"LARGE","PERIAPSIS":"347.453","EPHEMERIS_TYPE":"0"}];
